[{"OBJECT_NAME":"STARLINK-34660","OBJECT_ID":"2025-150L","EPOCH":"2026-03-09T12:35:02.910336","MEAN_MOTION":14.98329869,"ECCENTRICITY":0.00037555,"INCLINATION":70.0018,"RA_OF_ASC_NODE":134.8122,"ARG_OF_PERICENTER":270.2484,"MEAN_ANOMALY":89.8244,"EPHEMERIS_TYPE":0,"CLASSIFICATION_TYPE":"U","NORAD_CAT_ID":64800,"ELEMENT_SET_NO":999,"REV_AT_EPOCH":3649,"BSTAR":7.3251248e-5,"MEAN_MOTION_DOT":7.81e-6,"MEAN_MOTION_DDOT":0},{"OBJECT_NAME":"IKONOS 2","OBJECT_ID":"1999-051A","EPOCH":"2026-03-09T15:19:40.153152","MEAN_MOTION":14.96976552,"ECCENTRICITY":0.0006412,"INCLINATION":98.1486,"RA_OF_ASC_NODE":313.4587,"ARG_OF_PERICENTER":157.8343,"MEAN_ANOMALY":202.3156,"EPHEMERIS_TYPE":0,"CLASSIFICATION_TYPE":"U","NORAD_CAT_ID":25919,"ELEMENT_SET_NO":999,"REV_AT_EPOCH":42402,"BSTAR":0.00024901,"MEAN_MOTION_DOT":2.801e-5,"MEAN_MOTION_DDOT":0}]
